{"type": "FeatureCollection", "features": [ {"type": "Feature", "properties": {"norad_id": 43058, "name": "GSAT0218 (GALILEO 22)", "group": "galileo", "lat": 12.007129672265624, "lon": 38.43729666188394, "alt_km": 23227.40116665383, "timestamp": "2025-12-01T03:58:49.219262+00:00", "meta": {"OBJECT_NAME": "GSAT0218 (GALILEO 22)", "OBJECT_ID": "2017-079D", "EPOCH": "2025-11-30T07:26:14.163360", "MEAN_MOTION": 1.70473798, "ECCENTRICITY": 0.0002943, "INCLINATION": 55.1332, "RA_OF_ASC_NODE": 226.9759, "ARG_OF_PERICENTER": 303.6931, "MEAN_ANOMALY": 56.3534, "EPHEMERIS_TYPE": 0, "CLASSIFICATION_TYPE": "U", "NORAD_CAT_ID": 43058, "ELEMENT_SET_NO": 999, "REV_AT_EPOCH": 4962, "BSTAR": 0, "MEAN_MOTION_DOT": 2.9e-07, "MEAN_MOTION_DDOT": 0, "GROUP": "galileo"}, "tle": {"line1": "1 43058U 17079D   25334.30988615  .00000029  00000+0  00000+0 0  9990", "line2": "2 43058  55.1332 226.9759 0002943 303.6931  56.3534  1.70473798 49627"}}, "geometry": {"type": "Point", "coordinates": [38.43729666188394, 12.007129672265624]}}, {"type": "Feature", "properties": {"norad_id": 43564, "name": "GSAT0221 (GALILEO 25)", "group": "galileo", "lat": -36.462663042995224, "lon": -164.43504584068614, "alt_km": 23214.98561797429, "timestamp": "2025-12-01T03:58:49.219285+00:00", "meta": {"OBJECT_NAME": "GSAT0221 (GALILEO 25)", "OBJECT_ID": "2018-060A", "EPOCH": "2025-11-27T06:42:36.849024", "MEAN_MOTION": 1.70475843, "ECCENTRICITY": 0.0006566, "INCLINATION": 57.2311, "RA_OF_ASC_NODE": 347.2356, "ARG_OF_PERICENTER": 278.9073, "MEAN_ANOMALY": 81.0612, "EPHEMERIS_TYPE": 0, "CLASSIFICATION_TYPE": "U", "NORAD_CAT_ID": 43564, "ELEMENT_SET_NO": 999, "REV_AT_EPOCH": 4572, "BSTAR": 0, "MEAN_MOTION_DOT": -5.6e-07, "MEAN_MOTION_DDOT": 0, "GROUP": "galileo"}, "tle": {"line1": "1 43564U 18060A   25331.27959316 -.00000056  00000+0  00000+0 0  9993", "line2": "2 43564  57.2311 347.2356 0006566 278.9073  81.0612  1.70475843 45727"}}, "geometry": {"type": "Point", "coordinates": [-164.43504584068614, -36.462663042995224]}}, {"type": "Feature", "properties": {"norad_id": 43565, "name": "GSAT0222 (GALILEO 26)", "group": "galileo", "lat": 57.21293519545245, "lon": 77.91683036732466, "alt_km": 23233.491561745494, "timestamp": "2025-12-01T03:58:49.219296+00:00", "meta": {"OBJECT_NAME": "GSAT0222 (GALILEO 26)", "OBJECT_ID": "2018-060B", "EPOCH": "2025-11-29T06:12:28.687968", "MEAN_MOTION": 1.70475509, "ECCENTRICITY": 0.00061732, "INCLINATION": 57.2346, "RA_OF_ASC_NODE": 347.1853, "ARG_OF_PERICENTER": 259.4518, "MEAN_ANOMALY": 100.5223, "EPHEMERIS_TYPE": 0, "CLASSIFICATION_TYPE": "U", "NORAD_CAT_ID": 43565, "ELEMENT_SET_NO": 999, "REV_AT_EPOCH": 4580, "BSTAR": 0, "MEAN_MOTION_DOT": -5.5e-07, "MEAN_MOTION_DDOT": 0, "GROUP": "galileo"}, "tle": {"line1": "1 43565U 18060B   25333.25866537 -.00000055  00000+0  00000+0 0  9995", "line2": "2 43565  57.2346 347.1853 0006173 259.4518 100.5223  1.70475509 45802"}}, "geometry": {"type": "Point", "coordinates": [77.91683036732466, 57.21293519545245]}}, {"type": "Feature", "properties": {"norad_id": 43566, "name": "GSAT0219 (GALILEO 23)", "group": "galileo", "lat": -36.6791314525819, "lon": -41.52408513499316, "alt_km": 23211.54148662495, "timestamp": "2025-12-01T03:58:49.219307+00:00", "meta": {"OBJECT_NAME": "GSAT0219 (GALILEO 23)", "OBJECT_ID": "2018-060C", "EPOCH": "2025-11-30T01:35:38.037408", "MEAN_MOTION": 1.70475682, "ECCENTRICITY": 0.00057799, "INCLINATION": 57.2334, "RA_OF_ASC_NODE": 347.165, "ARG_OF_PERICENTER": 285.7575, "MEAN_ANOMALY": 74.2225, "EPHEMERIS_TYPE": 0, "CLASSIFICATION_TYPE": "U", "NORAD_CAT_ID": 43566, "ELEMENT_SET_NO": 999, "REV_AT_EPOCH": 4579, "BSTAR": 0, "MEAN_MOTION_DOT": -5.6e-07, "MEAN_MOTION_DDOT": 0, "GROUP": "galileo"}, "tle": {"line1": "1 43566U 18060C   25334.06641247 -.00000056  00000+0  00000+0 0  9996", "line2": "2 43566  57.2334 347.1650 0005779 285.7575  74.2225  1.70475682 45790"}}, "geometry": {"type": "Point", "coordinates": [-41.52408513499316, -36.6791314525819]}}, {"type": "Feature", "properties": {"norad_id": 43567, "name": "GSAT0220 (GALILEO 24)", "group": "galileo", "lat": 0.7731029466818969, "lon": 166.64709287866148, "alt_km": 23225.616723887175, "timestamp": "2025-12-01T03:58:49.219317+00:00", "meta": {"OBJECT_NAME": "GSAT0220 (GALILEO 24)", "OBJECT_ID": "2018-060D", "EPOCH": "2025-11-28T12:39:42.035904", "MEAN_MOTION": 1.70475653, "ECCENTRICITY": 0.00060233, "INCLINATION": 57.2337, "RA_OF_ASC_NODE": 347.2076, "ARG_OF_PERICENTER": 280.1858, "MEAN_ANOMALY": 79.7898, "EPHEMERIS_TYPE": 0, "CLASSIFICATION_TYPE": "U", "NORAD_CAT_ID": 43567, "ELEMENT_SET_NO": 999, "REV_AT_EPOCH": 4575, "BSTAR": 0, "MEAN_MOTION_DOT": -5.5e-07, "MEAN_MOTION_DDOT": 0, "GROUP": "galileo"}, "tle": {"line1": "1 43567U 18060D   25332.52756986 -.00000055  00000+0  00000+0 0  9992", "line2": "2 43567  57.2337 347.2076 0006023 280.1858  79.7898  1.70475653 45753"}}, "geometry": {"type": "Point", "coordinates": [166.64709287866148, 0.7731029466818969]}}, {"type": "Feature", "properties": {"norad_id": 49809, "name": "GSAT0223 (GALILEO 27)", "group": "galileo", "lat": -57.20318005832906, "lon": -103.16966586551317, "alt_km": 23215.13675686348, "timestamp": "2025-12-01T03:58:49.219524+00:00", "meta": {"OBJECT_NAME": "GSAT0223 (GALILEO 27)", "OBJECT_ID": "2021-116A", "EPOCH": "2025-11-29T12:59:08.620800", "MEAN_MOTION": 1.70475693, "ECCENTRICITY": 0.00047208, "INCLINATION": 57.2226, "RA_OF_ASC_NODE": 347.071, "ARG_OF_PERICENTER": 247.1953, "MEAN_ANOMALY": 105.5315, "EPHEMERIS_TYPE": 0, "CLASSIFICATION_TYPE": "U", "NORAD_CAT_ID": 49809, "ELEMENT_SET_NO": 999, "REV_AT_EPOCH": 2477, "BSTAR": 0, "MEAN_MOTION_DOT": -5.5e-07, "MEAN_MOTION_DDOT": 0, "GROUP": "galileo"}, "tle": {"line1": "1 49809U 21116A   25333.54107200 -.00000055  00000+0  00000+0 0  9995", "line2": "2 49809  57.2226 347.0710 0004720 247.1953 105.5315  1.70475693 24774"}}, "geometry": {"type": "Point", "coordinates": [-103.16966586551317, -57.20318005832906]}}, {"type": "Feature", "properties": {"norad_id": 49810, "name": "GSAT0224 (GALILEO 28)", "group": "galileo", "lat": 18.74635196815274, "lon": -0.33374648583710836, "alt_km": 23227.902669553885, "timestamp": "2025-12-01T03:58:49.219537+00:00", "meta": {"OBJECT_NAME": "GSAT0224 (GALILEO 28)", "OBJECT_ID": "2021-116B", "EPOCH": "2025-11-22T08:02:15.403200", "MEAN_MOTION": 1.70476295, "ECCENTRICITY": 0.00038769, "INCLINATION": 57.2249, "RA_OF_ASC_NODE": 347.264, "ARG_OF_PERICENTER": 247.2257, "MEAN_ANOMALY": 115.5015, "EPHEMERIS_TYPE": 0, "CLASSIFICATION_TYPE": "U", "NORAD_CAT_ID": 49810, "ELEMENT_SET_NO": 999, "REV_AT_EPOCH": 2468, "BSTAR": 0, "MEAN_MOTION_DOT": -6.8e-07, "MEAN_MOTION_DDOT": 0, "GROUP": "galileo"}, "tle": {"line1": "1 49810U 21116B   25326.33490050 -.00000068  00000+0  00000+0 0  9998", "line2": "2 49810  57.2249 347.2640 0003876 247.2257 115.5015  1.70476295 24681"}}, "geometry": {"type": "Point", "coordinates": [-0.33374648583710836, 18.74635196815274]}}, {"type": "Feature", "properties": {"norad_id": 59598, "name": "GSAT0225 (GALILEO 29)", "group": "galileo", "lat": 12.17381069385125, "lon": 115.2914892961546, "alt_km": 23226.866050972374, "timestamp": "2025-12-01T03:58:49.220078+00:00", "meta": {"OBJECT_NAME": "GSAT0225 (GALILEO 29)", "OBJECT_ID": "2024-079A", "EPOCH": "2025-11-27T14:47:10.896576", "MEAN_MOTION": 1.70474678, "ECCENTRICITY": 0.00022731, "INCLINATION": 54.9919, "RA_OF_ASC_NODE": 106.7188, "ARG_OF_PERICENTER": 170.1061, "MEAN_ANOMALY": 186.2217, "EPHEMERIS_TYPE": 0, "CLASSIFICATION_TYPE": "U", "NORAD_CAT_ID": 59598, "ELEMENT_SET_NO": 999, "REV_AT_EPOCH": 987, "BSTAR": 0, "MEAN_MOTION_DOT": 5.3e-07, "MEAN_MOTION_DDOT": 0, "GROUP": "galileo"}, "tle": {"line1": "1 59598U 24079A   25331.61609834  .00000053  00000+0  00000+0 0  9995", "line2": "2 59598  54.9919 106.7188 0002273 170.1061 186.2217  1.70474678  9871"}}, "geometry": {"type": "Point", "coordinates": [115.2914892961546, 12.17381069385125]}}, {"type": "Feature", "properties": {"norad_id": 59600, "name": "GSAT0227 (GALILEO 30)", "group": "galileo", "lat": -54.277174699082245, "lon": 3.570857986644191, "alt_km": 23236.820303910306, "timestamp": "2025-12-01T03:58:49.220117+00:00", "meta": {"OBJECT_NAME": "GSAT0227 (GALILEO 30)", "OBJECT_ID": "2024-079C", "EPOCH": "2025-11-30T03:38:35.461248", "MEAN_MOTION": 1.70474636, "ECCENTRICITY": 0.00034867, "INCLINATION": 54.9888, "RA_OF_ASC_NODE": 106.6465, "ARG_OF_PERICENTER": 113.1426, "MEAN_ANOMALY": 246.8704, "EPHEMERIS_TYPE": 0, "CLASSIFICATION_TYPE": "U", "NORAD_CAT_ID": 59600, "ELEMENT_SET_NO": 999, "REV_AT_EPOCH": 997, "BSTAR": 0, "MEAN_MOTION_DOT": 4.8e-07, "MEAN_MOTION_DDOT": 0, "GROUP": "galileo"}, "tle": {"line1": "1 59600U 24079C   25334.15179932  .00000048  00000+0  00000+0 0  9996", "line2": "2 59600  54.9888 106.6465 0003486 113.1426 246.8704  1.70474636  9975"}}, "geometry": {"type": "Point", "coordinates": [3.570857986644191, -54.277174699082245]}}, {"type": "Feature", "properties": {"norad_id": 61182, "name": "GSAT0232 (GALILEO 32)", "group": "galileo", "lat": 54.67674951288307, "lon": -31.291062213828706, "alt_km": 23219.201058169267, "timestamp": "2025-12-01T03:58:49.220241+00:00", "meta": {"OBJECT_NAME": "GSAT0232 (GALILEO 32)", "OBJECT_ID": "2024-167A", "EPOCH": "2025-11-29T15:16:36.414048", "MEAN_MOTION": 1.70473184, "ECCENTRICITY": 0.00022439, "INCLINATION": 55.2459, "RA_OF_ASC_NODE": 226.7912, "ARG_OF_PERICENTER": 216.1557, "MEAN_ANOMALY": 22.2275, "EPHEMERIS_TYPE": 0, "CLASSIFICATION_TYPE": "U", "NORAD_CAT_ID": 61182, "ELEMENT_SET_NO": 999, "REV_AT_EPOCH": 747, "BSTAR": 0, "MEAN_MOTION_DOT": 2.7e-07, "MEAN_MOTION_DDOT": 0, "GROUP": "galileo"}, "tle": {"line1": "1 61182U 24167A   25333.63653257  .00000027  00000+0  00000+0 0  9998", "line2": "2 61182  55.2459 226.7912 0002243 216.1557  22.2275  1.70473184  7470"}}, "geometry": {"type": "Point", "coordinates": [-31.291062213828706, 54.67674951288307]}}]}